[{"OBJECT_NAME":"STARLINK-30988","OBJECT_ID":"2023-191X","EPOCH":"2026-03-09T10:30:18.410112","MEAN_MOTION":15.27584834,"ECCENTRICITY":0.00011644,"INCLINATION":42.9991,"RA_OF_ASC_NODE":104.7823,"ARG_OF_PERICENTER":338.4821,"MEAN_ANOMALY":21.5982,"EPHEMERIS_TYPE":0,"CLASSIFICATION_TYPE":"U","NORAD_CAT_ID":58529,"ELEMENT_SET_NO":999,"REV_AT_EPOCH":12543,"BSTAR":0.00021102299,"MEAN_MOTION_DOT":5.55e-5,"MEAN_MOTION_DDOT":0},{"OBJECT_NAME":"JD 2","OBJECT_ID":"1984-012D","EPOCH":"2026-03-09T22:15:36.882144","MEAN_MOTION":13.7538851,"ECCENTRICITY":0.07532678,"INCLINATION":63.3059,"RA_OF_ASC_NODE":308.0564,"ARG_OF_PERICENTER":126.7288,"MEAN_ANOMALY":240.5384,"EPHEMERIS_TYPE":0,"CLASSIFICATION_TYPE":"U","NORAD_CAT_ID":14729,"ELEMENT_SET_NO":999,"REV_AT_EPOCH":33025,"BSTAR":0.00052355644,"MEAN_MOTION_DOT":4.484e-5,"MEAN_MOTION_DDOT":0}]
